SITRO-AIS-60            
1 67260U 25313N   26026.77446646  .00010591  00000+0  48847-3 0  9994
2 67260  97.4090 103.7226 0016793 137.4470 222.8070 15.20300242  4447
2025-313P               
1 67261U 25313P   26026.76774883  .00026399  00000+0  11850-2 0  9997
2 67261  97.4126 103.7563 0016005 136.2923 223.9583 15.21038273  4442
2025-313Q               
1 67262U 25313Q   26026.77123677  .00017697  00000+0  80586-3 0  9992
2 67262  97.4092 103.7275 0016258 137.9362 222.3125 15.20626533  4446
DCS-1                   
1 67263U 25313R   26026.77207906  .00015452  00000+0  70635-3 0  9992
2 67263  97.4105 103.7429 0016308 137.0346 223.2166 15.20523378  4440
2025-313S               
1 67264U 25313S   26026.77415896  .00010358  00000+0  47807-3 0  9997
2 67264  97.4174 103.7494 0016448 141.8368 218.4035 15.20288013  4446
SITRO-TD-4              
1 67265U 25313T   26026.77157851  .00014910  00000+0  68149-3 0  9992
2 67265  97.4084 103.7354 0016260 137.8376 222.4113 15.20536099  4440
SITRO-AIS-65            
1 67266U 25313U   26026.77144381  .00015044  00000+0  68741-3 0  9994
2 67266  97.4112 103.7455 0016182 136.5968 223.6545 15.20544728  4441
2025-313V               
1 67267U 25313V   26026.77036542  .00017175  00000+0  78175-3 0  9993
2 67267  97.4094 103.7316 0015329 141.9783 218.2537 15.20661838  4447
ZORKY-2M 7              
1 67268U 25313W   26026.77218087  .00011718  00000+0  53779-3 0  9990
2 67268  97.4094 103.7276 0016376 137.3261 222.9249 15.20450481  4448
2025-313X               
1 67269U 25313X   26026.76914513  .00020910  00000+0  94604-3 0  9993
2 67269  97.4120 103.7512 0016010 135.9859 224.2655 15.20817637  4440
SITRO-TD-3              
1 67270U 25313Y   26026.70614884  .00015610  00000+0  71344-3 0  9994
2 67270  97.4093 103.6737 0016262 137.7128 222.5364 15.20527365  4430
2025-313Z               
1 67271U 25313Z   26026.77452295  .00007537  00000+0  34983-3 0  9995
2 67271  97.4090 103.7248 0016505 133.6479 226.6128 15.20192207  4447
