CCSDS_OMM_VERS = 2.0
CREATION_DATE  = 
ORIGINATOR     = 

OBJECT_NAME    = SITRO-AIS-60
OBJECT_ID      = 2025-313N
CENTER_NAME    = EARTH
REF_FRAME      = TEME
TIME_SYSTEM    = UTC
MEAN_ELEMENT_THEORY = SGP/SGP4

EPOCH          = 2026-01-26T18:35:13.902144
MEAN_MOTION    = 15.20300242
ECCENTRICITY   = .0016793
INCLINATION    = 97.4090
RA_OF_ASC_NODE = 103.7226
ARG_OF_PERICENTER = 137.4470
MEAN_ANOMALY   = 222.8070

EPHEMERIS_TYPE = 0
CLASSIFICATION_TYPE = U
NORAD_CAT_ID   = 67260
ELEMENT_SET_NO = 999
REV_AT_EPOCH   = 444
BSTAR          = .48847E-3
MEAN_MOTION_DOT = .10591E-3
MEAN_MOTION_DDOT = 0

CCSDS_OMM_VERS = 2.0
CREATION_DATE  = 
ORIGINATOR     = 

OBJECT_NAME    = 2025-313P
OBJECT_ID      = 2025-313P
CENTER_NAME    = EARTH
REF_FRAME      = TEME
TIME_SYSTEM    = UTC
MEAN_ELEMENT_THEORY = SGP/SGP4

EPOCH          = 2026-01-26T18:25:33.498912
MEAN_MOTION    = 15.21038273
ECCENTRICITY   = .0016005
INCLINATION    = 97.4126
RA_OF_ASC_NODE = 103.7563
ARG_OF_PERICENTER = 136.2923
MEAN_ANOMALY   = 223.9583

EPHEMERIS_TYPE = 0
CLASSIFICATION_TYPE = U
NORAD_CAT_ID   = 67261
ELEMENT_SET_NO = 999
REV_AT_EPOCH   = 444
BSTAR          = .1185E-2
MEAN_MOTION_DOT = .26399E-3
MEAN_MOTION_DDOT = 0

CCSDS_OMM_VERS = 2.0
CREATION_DATE  = 
ORIGINATOR     = 

OBJECT_NAME    = 2025-313Q
OBJECT_ID      = 2025-313Q
CENTER_NAME    = EARTH
REF_FRAME      = TEME
TIME_SYSTEM    = UTC
MEAN_ELEMENT_THEORY = SGP/SGP4

EPOCH          = 2026-01-26T18:30:34.856928
MEAN_MOTION    = 15.20626533
ECCENTRICITY   = .0016258
INCLINATION    = 97.4092
RA_OF_ASC_NODE = 103.7275
ARG_OF_PERICENTER = 137.9362
MEAN_ANOMALY   = 222.3125

EPHEMERIS_TYPE = 0
CLASSIFICATION_TYPE = U
NORAD_CAT_ID   = 67262
ELEMENT_SET_NO = 999
REV_AT_EPOCH   = 444
BSTAR          = .80586E-3
MEAN_MOTION_DOT = .17697E-3
MEAN_MOTION_DDOT = 0

CCSDS_OMM_VERS = 2.0
CREATION_DATE  = 
ORIGINATOR     = 

OBJECT_NAME    = DCS-1
OBJECT_ID      = 2025-313R
CENTER_NAME    = EARTH
REF_FRAME      = TEME
TIME_SYSTEM    = UTC
MEAN_ELEMENT_THEORY = SGP/SGP4

EPOCH          = 2026-01-26T18:31:47.630784
MEAN_MOTION    = 15.20523378
ECCENTRICITY   = .0016308
INCLINATION    = 97.4105
RA_OF_ASC_NODE = 103.7429
ARG_OF_PERICENTER = 137.0346
MEAN_ANOMALY   = 223.2166

EPHEMERIS_TYPE = 0
CLASSIFICATION_TYPE = U
NORAD_CAT_ID   = 67263
ELEMENT_SET_NO = 999
REV_AT_EPOCH   = 444
BSTAR          = .70635E-3
MEAN_MOTION_DOT = .15452E-3
MEAN_MOTION_DDOT = 0

CCSDS_OMM_VERS = 2.0
CREATION_DATE  = 
ORIGINATOR     = 

OBJECT_NAME    = 2025-313S
OBJECT_ID      = 2025-313S
CENTER_NAME    = EARTH
REF_FRAME      = TEME
TIME_SYSTEM    = UTC
MEAN_ELEMENT_THEORY = SGP/SGP4

EPOCH          = 2026-01-26T18:34:47.334144
MEAN_MOTION    = 15.20288013
ECCENTRICITY   = .0016448
INCLINATION    = 97.4174
RA_OF_ASC_NODE = 103.7494
ARG_OF_PERICENTER = 141.8368
MEAN_ANOMALY   = 218.4035

EPHEMERIS_TYPE = 0
CLASSIFICATION_TYPE = U
NORAD_CAT_ID   = 67264
ELEMENT_SET_NO = 999
REV_AT_EPOCH   = 444
BSTAR          = .47807E-3
MEAN_MOTION_DOT = .10358E-3
MEAN_MOTION_DDOT = 0

CCSDS_OMM_VERS = 2.0
CREATION_DATE  = 
ORIGINATOR     = 

OBJECT_NAME    = SITRO-TD-4
OBJECT_ID      = 2025-313T
CENTER_NAME    = EARTH
REF_FRAME      = TEME
TIME_SYSTEM    = UTC
MEAN_ELEMENT_THEORY = SGP/SGP4

EPOCH          = 2026-01-26T18:31:04.383264
MEAN_MOTION    = 15.20536099
ECCENTRICITY   = .001626
INCLINATION    = 97.4084
RA_OF_ASC_NODE = 103.7354
ARG_OF_PERICENTER = 137.8376
MEAN_ANOMALY   = 222.4113

EPHEMERIS_TYPE = 0
CLASSIFICATION_TYPE = U
NORAD_CAT_ID   = 67265
ELEMENT_SET_NO = 999
REV_AT_EPOCH   = 444
BSTAR          = .68149E-3
MEAN_MOTION_DOT = .1491E-3
MEAN_MOTION_DDOT = 0

CCSDS_OMM_VERS = 2.0
CREATION_DATE  = 
ORIGINATOR     = 

OBJECT_NAME    = SITRO-AIS-65
OBJECT_ID      = 2025-313U
CENTER_NAME    = EARTH
REF_FRAME      = TEME
TIME_SYSTEM    = UTC
MEAN_ELEMENT_THEORY = SGP/SGP4

EPOCH          = 2026-01-26T18:30:52.745184
MEAN_MOTION    = 15.20544728
ECCENTRICITY   = .0016182
INCLINATION    = 97.4112
RA_OF_ASC_NODE = 103.7455
ARG_OF_PERICENTER = 136.5968
MEAN_ANOMALY   = 223.6545

EPHEMERIS_TYPE = 0
CLASSIFICATION_TYPE = U
NORAD_CAT_ID   = 67266
ELEMENT_SET_NO = 999
REV_AT_EPOCH   = 444
BSTAR          = .68741E-3
MEAN_MOTION_DOT = .15044E-3
MEAN_MOTION_DDOT = 0

CCSDS_OMM_VERS = 2.0
CREATION_DATE  = 
ORIGINATOR     = 

OBJECT_NAME    = 2025-313V
OBJECT_ID      = 2025-313V
CENTER_NAME    = EARTH
REF_FRAME      = TEME
TIME_SYSTEM    = UTC
MEAN_ELEMENT_THEORY = SGP/SGP4

EPOCH          = 2026-01-26T18:29:19.572288
MEAN_MOTION    = 15.20661838
ECCENTRICITY   = .0015329
INCLINATION    = 97.4094
RA_OF_ASC_NODE = 103.7316
ARG_OF_PERICENTER = 141.9783
MEAN_ANOMALY   = 218.2537

EPHEMERIS_TYPE = 0
CLASSIFICATION_TYPE = U
NORAD_CAT_ID   = 67267
ELEMENT_SET_NO = 999
REV_AT_EPOCH   = 444
BSTAR          = .78175E-3
MEAN_MOTION_DOT = .17175E-3
MEAN_MOTION_DDOT = 0

CCSDS_OMM_VERS = 2.0
CREATION_DATE  = 
ORIGINATOR     = 

OBJECT_NAME    = ZORKY-2M 7
OBJECT_ID      = 2025-313W
CENTER_NAME    = EARTH
REF_FRAME      = TEME
TIME_SYSTEM    = UTC
MEAN_ELEMENT_THEORY = SGP/SGP4

EPOCH          = 2026-01-26T18:31:56.427168
MEAN_MOTION    = 15.20450481
ECCENTRICITY   = .0016376
INCLINATION    = 97.4094
RA_OF_ASC_NODE = 103.7276
ARG_OF_PERICENTER = 137.3261
MEAN_ANOMALY   = 222.9249

EPHEMERIS_TYPE = 0
CLASSIFICATION_TYPE = U
NORAD_CAT_ID   = 67268
ELEMENT_SET_NO = 999
REV_AT_EPOCH   = 444
BSTAR          = .53779E-3
MEAN_MOTION_DOT = .11718E-3
MEAN_MOTION_DDOT = 0

CCSDS_OMM_VERS = 2.0
CREATION_DATE  = 
ORIGINATOR     = 

OBJECT_NAME    = 2025-313X
OBJECT_ID      = 2025-313X
CENTER_NAME    = EARTH
REF_FRAME      = TEME
TIME_SYSTEM    = UTC
MEAN_ELEMENT_THEORY = SGP/SGP4

EPOCH          = 2026-01-26T18:27:34.139232
MEAN_MOTION    = 15.20817637
ECCENTRICITY   = .001601
INCLINATION    = 97.4120
RA_OF_ASC_NODE = 103.7512
ARG_OF_PERICENTER = 135.9859
MEAN_ANOMALY   = 224.2655

EPHEMERIS_TYPE = 0
CLASSIFICATION_TYPE = U
NORAD_CAT_ID   = 67269
ELEMENT_SET_NO = 999
REV_AT_EPOCH   = 444
BSTAR          = .94604E-3
MEAN_MOTION_DOT = .2091E-3
MEAN_MOTION_DDOT = 0

CCSDS_OMM_VERS = 2.0
CREATION_DATE  = 
ORIGINATOR     = 

OBJECT_NAME    = SITRO-TD-3
OBJECT_ID      = 2025-313Y
CENTER_NAME    = EARTH
REF_FRAME      = TEME
TIME_SYSTEM    = UTC
MEAN_ELEMENT_THEORY = SGP/SGP4

EPOCH          = 2026-01-26T16:56:51.259776
MEAN_MOTION    = 15.20527365
ECCENTRICITY   = .0016262
INCLINATION    = 97.4093
RA_OF_ASC_NODE = 103.6737
ARG_OF_PERICENTER = 137.7128
MEAN_ANOMALY   = 222.5364

EPHEMERIS_TYPE = 0
CLASSIFICATION_TYPE = U
NORAD_CAT_ID   = 67270
ELEMENT_SET_NO = 999
REV_AT_EPOCH   = 443
BSTAR          = .71344E-3
MEAN_MOTION_DOT = .1561E-3
MEAN_MOTION_DDOT = 0

CCSDS_OMM_VERS = 2.0
CREATION_DATE  = 
ORIGINATOR     = 

OBJECT_NAME    = 2025-313Z
OBJECT_ID      = 2025-313Z
CENTER_NAME    = EARTH
REF_FRAME      = TEME
TIME_SYSTEM    = UTC
MEAN_ELEMENT_THEORY = SGP/SGP4

EPOCH          = 2026-01-26T18:35:18.782880
MEAN_MOTION    = 15.20192207
ECCENTRICITY   = .0016505
INCLINATION    = 97.4090
RA_OF_ASC_NODE = 103.7248
ARG_OF_PERICENTER = 133.6479
MEAN_ANOMALY   = 226.6128

EPHEMERIS_TYPE = 0
CLASSIFICATION_TYPE = U
NORAD_CAT_ID   = 67271
ELEMENT_SET_NO = 999
REV_AT_EPOCH   = 444
BSTAR          = .34983E-3
MEAN_MOTION_DOT = .7537E-4
MEAN_MOTION_DDOT = 0

